CCSDS_OMM_VERS = 2.0
CREATION_DATE  = 
ORIGINATOR     = 

OBJECT_NAME    = STARLINK-36813
OBJECT_ID      = 2026-035P
CENTER_NAME    = EARTH
REF_FRAME      = TEME
TIME_SYSTEM    = UTC
MEAN_ELEMENT_THEORY = SGP/SGP4

EPOCH          = 2026-03-05T14:00:01.999872
MEAN_MOTION    = 15.97971228
ECCENTRICITY   = .00012825
INCLINATION    = 97.2720
RA_OF_ASC_NODE = 356.6325
ARG_OF_PERICENTER = 87.7058
MEAN_ANOMALY   = 49.7296

EPHEMERIS_TYPE = 0
CLASSIFICATION_TYPE = U
NORAD_CAT_ID   = 67892
ELEMENT_SET_NO = 999
REV_AT_EPOCH   = 309
BSTAR          = -.27437644E-2
MEAN_MOTION_DOT = -.1235276E-1
MEAN_MOTION_DDOT = .47392027E-3

CCSDS_OMM_VERS = 2.0
CREATION_DATE  = 
ORIGINATOR     = 

OBJECT_NAME    = STARLINK-36803
OBJECT_ID      = 2026-035Q
CENTER_NAME    = EARTH
REF_FRAME      = TEME
TIME_SYSTEM    = UTC
MEAN_ELEMENT_THEORY = SGP/SGP4

EPOCH          = 2026-03-05T14:00:01.999872
MEAN_MOTION    = 15.97507573
ECCENTRICITY   = .00012639
INCLINATION    = 97.2736
RA_OF_ASC_NODE = 356.6225
ARG_OF_PERICENTER = 96.5007
MEAN_ANOMALY   = 13.2374

EPHEMERIS_TYPE = 0
CLASSIFICATION_TYPE = U
NORAD_CAT_ID   = 67893
ELEMENT_SET_NO = 999
REV_AT_EPOCH   = 309
BSTAR          = -.24937119E-2
MEAN_MOTION_DOT = -.1095669E-1
MEAN_MOTION_DDOT = .37769084E-3

CCSDS_OMM_VERS = 2.0
CREATION_DATE  = 
ORIGINATOR     = 

OBJECT_NAME    = STARLINK-36846
OBJECT_ID      = 2026-035R
CENTER_NAME    = EARTH
REF_FRAME      = TEME
TIME_SYSTEM    = UTC
MEAN_ELEMENT_THEORY = SGP/SGP4

EPOCH          = 2026-03-05T14:00:01.999872
MEAN_MOTION    = 15.97690726
ECCENTRICITY   = .00014476
INCLINATION    = 97.2733
RA_OF_ASC_NODE = 356.6266
ARG_OF_PERICENTER = 105.7685
MEAN_ANOMALY   = 13.9689

EPHEMERIS_TYPE = 0
CLASSIFICATION_TYPE = U
NORAD_CAT_ID   = 67894
ELEMENT_SET_NO = 999
REV_AT_EPOCH   = 309
BSTAR          = -.27127135E-2
MEAN_MOTION_DOT = -.1202937E-1
MEAN_MOTION_DDOT = .44985184E-3

CCSDS_OMM_VERS = 2.0
CREATION_DATE  = 
ORIGINATOR     = 

OBJECT_NAME    = STARLINK-36866
OBJECT_ID      = 2026-035S
CENTER_NAME    = EARTH
REF_FRAME      = TEME
TIME_SYSTEM    = UTC
MEAN_ELEMENT_THEORY = SGP/SGP4

EPOCH          = 2026-03-05T14:00:01.999872
MEAN_MOTION    = 15.97755154
ECCENTRICITY   = .00012801
INCLINATION    = 97.2731
RA_OF_ASC_NODE = 356.6284
ARG_OF_PERICENTER = 75.5349
MEAN_ANOMALY   = 48.6058

EPHEMERIS_TYPE = 0
CLASSIFICATION_TYPE = U
NORAD_CAT_ID   = 67895
ELEMENT_SET_NO = 999
REV_AT_EPOCH   = 309
BSTAR          = -.27213909E-2
MEAN_MOTION_DOT = -.1210959E-1
MEAN_MOTION_DDOT = .45574189E-3

CCSDS_OMM_VERS = 2.0
CREATION_DATE  = 
ORIGINATOR     = 

OBJECT_NAME    = STARLINK-36877
OBJECT_ID      = 2026-035T
CENTER_NAME    = EARTH
REF_FRAME      = TEME
TIME_SYSTEM    = UTC
MEAN_ELEMENT_THEORY = SGP/SGP4

EPOCH          = 2026-03-05T14:00:01.999872
MEAN_MOTION    = 15.97608386
ECCENTRICITY   = .00013127
INCLINATION    = 97.2733
RA_OF_ASC_NODE = 356.6245
ARG_OF_PERICENTER = 93.4542
MEAN_ANOMALY   = 21.4790

EPHEMERIS_TYPE = 0
CLASSIFICATION_TYPE = U
NORAD_CAT_ID   = 67896
ELEMENT_SET_NO = 999
REV_AT_EPOCH   = 309
BSTAR          = -.26432267E-2
MEAN_MOTION_DOT = -.1167147E-1
MEAN_MOTION_DDOT = .42502704E-3

CCSDS_OMM_VERS = 2.0
CREATION_DATE  = 
ORIGINATOR     = 

OBJECT_NAME    = STARLINK-36870
OBJECT_ID      = 2026-035U
CENTER_NAME    = EARTH
REF_FRAME      = TEME
TIME_SYSTEM    = UTC
MEAN_ELEMENT_THEORY = SGP/SGP4

EPOCH          = 2026-03-05T14:00:01.999872
MEAN_MOTION    = 15.97831441
ECCENTRICITY   = .0001338
INCLINATION    = 97.2728
RA_OF_ASC_NODE = 356.6301
ARG_OF_PERICENTER = 88.3205
MEAN_ANOMALY   = 40.7926

EPHEMERIS_TYPE = 0
CLASSIFICATION_TYPE = U
NORAD_CAT_ID   = 67897
ELEMENT_SET_NO = 999
REV_AT_EPOCH   = 309
BSTAR          = -.27488581E-2
MEAN_MOTION_DOT = -.1228163E-1
MEAN_MOTION_DDOT = .46817445E-3

CCSDS_OMM_VERS = 2.0
CREATION_DATE  = 
ORIGINATOR     = 

OBJECT_NAME    = STARLINK-36810
OBJECT_ID      = 2026-035V
CENTER_NAME    = EARTH
REF_FRAME      = TEME
TIME_SYSTEM    = UTC
MEAN_ELEMENT_THEORY = SGP/SGP4

EPOCH          = 2026-03-05T14:00:01.999872
MEAN_MOTION    = 15.97899534
ECCENTRICITY   = .00012267
INCLINATION    = 97.2729
RA_OF_ASC_NODE = 356.6316
ARG_OF_PERICENTER = 84.5353
MEAN_ANOMALY   = 48.6003

EPHEMERIS_TYPE = 0
CLASSIFICATION_TYPE = U
NORAD_CAT_ID   = 67898
ELEMENT_SET_NO = 999
REV_AT_EPOCH   = 309
BSTAR          = -.27373904E-2
MEAN_MOTION_DOT = -.1227617E-1
MEAN_MOTION_DDOT = .46813595E-3

CCSDS_OMM_VERS = 2.0
CREATION_DATE  = 
ORIGINATOR     = 

OBJECT_NAME    = STARLINK-36878
OBJECT_ID      = 2026-035W
CENTER_NAME    = EARTH
REF_FRAME      = TEME
TIME_SYSTEM    = UTC
MEAN_ELEMENT_THEORY = SGP/SGP4

EPOCH          = 2026-03-05T14:00:01.999872
MEAN_MOTION    = 15.98028452
ECCENTRICITY   = .00012811
INCLINATION    = 97.2726
RA_OF_ASC_NODE = 356.6351
ARG_OF_PERICENTER = 98.8190
MEAN_ANOMALY   = 42.3165

EPHEMERIS_TYPE = 0
CLASSIFICATION_TYPE = U
NORAD_CAT_ID   = 67899
ELEMENT_SET_NO = 999
REV_AT_EPOCH   = 309
BSTAR          = -.26902483E-2
MEAN_MOTION_DOT = -.1215203E-1
MEAN_MOTION_DDOT = .46005654E-3

CCSDS_OMM_VERS = 2.0
CREATION_DATE  = 
ORIGINATOR     = 

OBJECT_NAME    = STARLINK-36361
OBJECT_ID      = 2026-035X
CENTER_NAME    = EARTH
REF_FRAME      = TEME
TIME_SYSTEM    = UTC
MEAN_ELEMENT_THEORY = SGP/SGP4

EPOCH          = 2026-03-05T14:00:01.999872
MEAN_MOTION    = 15.98127773
ECCENTRICITY   = .00013338
INCLINATION    = 97.2726
RA_OF_ASC_NODE = 356.6369
ARG_OF_PERICENTER = 104.0117
MEAN_ANOMALY   = 41.4504

EPHEMERIS_TYPE = 0
CLASSIFICATION_TYPE = U
NORAD_CAT_ID   = 67900
ELEMENT_SET_NO = 999
REV_AT_EPOCH   = 309
BSTAR          = -.27318909E-2
MEAN_MOTION_DOT = -.1240551E-1
MEAN_MOTION_DDOT = .47847964E-3

CCSDS_OMM_VERS = 2.0
CREATION_DATE  = 
ORIGINATOR     = 

OBJECT_NAME    = STARLINK-36336
OBJECT_ID      = 2026-035Y
CENTER_NAME    = EARTH
REF_FRAME      = TEME
TIME_SYSTEM    = UTC
MEAN_ELEMENT_THEORY = SGP/SGP4

EPOCH          = 2026-03-05T14:00:01.999872
MEAN_MOTION    = 15.98343246
ECCENTRICITY   = .00012854
INCLINATION    = 97.2735
RA_OF_ASC_NODE = 356.6427
ARG_OF_PERICENTER = 90.8671
MEAN_ANOMALY   = 67.7691

EPHEMERIS_TYPE = 0
CLASSIFICATION_TYPE = U
NORAD_CAT_ID   = 67901
ELEMENT_SET_NO = 999
REV_AT_EPOCH   = 314
BSTAR          = -.27076331E-2
MEAN_MOTION_DOT = -.1244224E-1
MEAN_MOTION_DDOT = .48223692E-3

CCSDS_OMM_VERS = 2.0
CREATION_DATE  = 
ORIGINATOR     = 

OBJECT_NAME    = STARLINK-36876
OBJECT_ID      = 2026-035Z
CENTER_NAME    = EARTH
REF_FRAME      = TEME
TIME_SYSTEM    = UTC
MEAN_ELEMENT_THEORY = SGP/SGP4

EPOCH          = 2026-03-05T14:00:01.999872
MEAN_MOTION    = 15.98191891
ECCENTRICITY   = .00013021
INCLINATION    = 97.2734
RA_OF_ASC_NODE = 356.6394
ARG_OF_PERICENTER = 96.3684
MEAN_ANOMALY   = 52.9318

EPHEMERIS_TYPE = 0
CLASSIFICATION_TYPE = U
NORAD_CAT_ID   = 67902
ELEMENT_SET_NO = 999
REV_AT_EPOCH   = 309
BSTAR          = -.27253806E-2
MEAN_MOTION_DOT = -.1241967E-1
MEAN_MOTION_DDOT = .47982641E-3

CCSDS_OMM_VERS = 2.0
CREATION_DATE  = 
ORIGINATOR     = 

OBJECT_NAME    = STARLINK-36257
OBJECT_ID      = 2026-035AA
CENTER_NAME    = EARTH
REF_FRAME      = TEME
TIME_SYSTEM    = UTC
MEAN_ELEMENT_THEORY = SGP/SGP4

EPOCH          = 2026-03-05T14:00:01.999872
MEAN_MOTION    = 15.98263356
ECCENTRICITY   = .0001272
INCLINATION    = 97.2731
RA_OF_ASC_NODE = 356.6401
ARG_OF_PERICENTER = 83.0835
MEAN_ANOMALY   = 70.2388

EPHEMERIS_TYPE = 0
CLASSIFICATION_TYPE = U
NORAD_CAT_ID   = 67903
ELEMENT_SET_NO = 999
REV_AT_EPOCH   = 314
BSTAR          = -.27098623E-2
MEAN_MOTION_DOT = -.1239799E-1
MEAN_MOTION_DDOT = .47865406E-3

CCSDS_OMM_VERS = 2.0
CREATION_DATE  = 
ORIGINATOR     = 

OBJECT_NAME    = STARLINK-36814
OBJECT_ID      = 2026-036A
CENTER_NAME    = EARTH
REF_FRAME      = TEME
TIME_SYSTEM    = UTC
MEAN_ELEMENT_THEORY = SGP/SGP4

EPOCH          = 2026-03-05T14:00:01.999872
MEAN_MOTION    = 15.81953136
ECCENTRICITY   = .00023501
INCLINATION    = 42.9976
RA_OF_ASC_NODE = 274.9753
ARG_OF_PERICENTER = 266.1401
MEAN_ANOMALY   = 312.2841

EPHEMERIS_TYPE = 0
CLASSIFICATION_TYPE = U
NORAD_CAT_ID   = 67904
ELEMENT_SET_NO = 999
REV_AT_EPOCH   = 298
BSTAR          = .38735629E-3
MEAN_MOTION_DOT = .81567E-3
MEAN_MOTION_DDOT = 0

CCSDS_OMM_VERS = 2.0
CREATION_DATE  = 
ORIGINATOR     = 

OBJECT_NAME    = STARLINK-36729
OBJECT_ID      = 2026-036B
CENTER_NAME    = EARTH
REF_FRAME      = TEME
TIME_SYSTEM    = UTC
MEAN_ELEMENT_THEORY = SGP/SGP4

EPOCH          = 2026-03-05T14:00:01.999872
MEAN_MOTION    = 15.81975421
ECCENTRICITY   = .00018222
INCLINATION    = 42.9976
RA_OF_ASC_NODE = 274.9643
ARG_OF_PERICENTER = 264.0580
MEAN_ANOMALY   = 318.6342

EPHEMERIS_TYPE = 0
CLASSIFICATION_TYPE = U
NORAD_CAT_ID   = 67905
ELEMENT_SET_NO = 999
REV_AT_EPOCH   = 298
BSTAR          = .26694536E-3
MEAN_MOTION_DOT = .55934E-3
MEAN_MOTION_DDOT = 0

CCSDS_OMM_VERS = 2.0
CREATION_DATE  = 
ORIGINATOR     = 

OBJECT_NAME    = STARLINK-36763
OBJECT_ID      = 2026-036C
CENTER_NAME    = EARTH
REF_FRAME      = TEME
TIME_SYSTEM    = UTC
MEAN_ELEMENT_THEORY = SGP/SGP4

EPOCH          = 2026-03-05T14:00:01.999872
MEAN_MOTION    = 15.81995754
ECCENTRICITY   = .00017229
INCLINATION    = 42.9977
RA_OF_ASC_NODE = 274.9534
ARG_OF_PERICENTER = 241.3679
MEAN_ANOMALY   = 345.5861

EPHEMERIS_TYPE = 0
CLASSIFICATION_TYPE = U
NORAD_CAT_ID   = 67906
ELEMENT_SET_NO = 999
REV_AT_EPOCH   = 298
BSTAR          = .14627536E-3
MEAN_MOTION_DOT = .30346E-3
MEAN_MOTION_DDOT = 0

